[{"OBJECT_NAME":"STARLINK-31011","OBJECT_ID":"2023-191K","EPOCH":"2026-03-09T09:54:52.523424","MEAN_MOTION":15.26744803,"ECCENTRICITY":8.44e-5,"INCLINATION":42.9999,"RA_OF_ASC_NODE":104.5994,"ARG_OF_PERICENTER":246.5904,"MEAN_ANOMALY":113.4858,"EPHEMERIS_TYPE":0,"CLASSIFICATION_TYPE":"U","NORAD_CAT_ID":58517,"ELEMENT_SET_NO":999,"REV_AT_EPOCH":12543,"BSTAR":-1.6462929e-5,"MEAN_MOTION_DOT":-7.01e-6,"MEAN_MOTION_DDOT":0},{"OBJECT_NAME":"TIANMU-1 22","OBJECT_ID":"2023-208D","EPOCH":"2026-03-09T22:39:05.738688","MEAN_MOTION":15.29457749,"ECCENTRICITY":0.00031332,"INCLINATION":97.4379,"RA_OF_ASC_NODE":184.9419,"ARG_OF_PERICENTER":351.9312,"MEAN_ANOMALY":8.1877,"EPHEMERIS_TYPE":0,"CLASSIFICATION_TYPE":"U","NORAD_CAT_ID":58663,"ELEMENT_SET_NO":999,"REV_AT_EPOCH":12215,"BSTAR":0.00038239675,"MEAN_MOTION_DOT":0.00010851,"MEAN_MOTION_DDOT":0}]
